[{"OBJECT_NAME":"STARLINK-3653","OBJECT_ID":"2022-025AW","EPOCH":"2025-08-01T12:02:01.176864","MEAN_MOTION":15.08833014,"ECCENTRICITY":0.0001203,"INCLINATION":53.2177,"RA_OF_ASC_NODE":287.4994,"ARG_OF_PERICENTER":91.657,"MEAN_ANOMALY":268.456,"EPHEMERIS_TYPE":0,"CLASSIFICATION_TYPE":"U","NORAD_CAT_ID":52000,"ELEMENT_SET_NO":999,"REV_AT_EPOCH":18768,"BSTAR":1.8324e-5,"MEAN_MOTION_DOT":4.0e-8,"MEAN_MOTION_DDOT":0},{"OBJECT_NAME":"STARLINK-3659","OBJECT_ID":"2022-025AX","EPOCH":"2025-08-01T13:54:41.768640","MEAN_MOTION":15.08836005,"ECCENTRICITY":0.0001131,"INCLINATION":53.2178,"RA_OF_ASC_NODE":287.2461,"ARG_OF_PERICENTER":91.1521,"MEAN_ANOMALY":268.9601,"EPHEMERIS_TYPE":0,"CLASSIFICATION_TYPE":"U","NORAD_CAT_ID":52001,"ELEMENT_SET_NO":999,"REV_AT_EPOCH":18769,"BSTAR":4.8878e-5,"MEAN_MOTION_DOT":4.9e-6,"MEAN_MOTION_DDOT":0},{"OBJECT_NAME":"STARLINK-3668","OBJECT_ID":"2022-025AY","EPOCH":"2025-08-01T12:17:55.800096","MEAN_MOTION":15.08841291,"ECCENTRICITY":0.0001208,"INCLINATION":53.2175,"RA_OF_ASC_NODE":287.5764,"ARG_OF_PERICENTER":92.4768,"MEAN_ANOMALY":267.6362,"EPHEMERIS_TYPE":0,"CLASSIFICATION_TYPE":"U","NORAD_CAT_ID":52002,"ELEMENT_SET_NO":999,"REV_AT_EPOCH":18768,"BSTAR":7.5478e-5,"MEAN_MOTION_DOT":9.14e-6,"MEAN_MOTION_DDOT":0},{"OBJECT_NAME":"STARLINK-3537","OBJECT_ID":"2022-029A","EPOCH":"2025-08-01T10:59:59.572896","MEAN_MOTION":16.13742863,"ECCENTRICITY":0.0001763,"INCLINATION":53.1995,"RA_OF_ASC_NODE":193.6137,"ARG_OF_PERICENTER":239.4497,"MEAN_ANOMALY":262.8224,"EPHEMERIS_TYPE":0,"CLASSIFICATION_TYPE":"U","NORAD_CAT_ID":52088,"ELEMENT_SET_NO":999,"REV_AT_EPOCH":18970,"BSTAR":0.00068731,"MEAN_MOTION_DOT":0.00850729,"MEAN_MOTION_DDOT":0.00044679},{"OBJECT_NAME":"STARLINK-3722","OBJECT_ID":"2022-029B","EPOCH":"2025-08-01T18:35:28.595328","MEAN_MOTION":15.08847239,"ECCENTRICITY":0.0001364,"INCLINATION":53.2206,"RA_OF_ASC_NODE":356.3593,"ARG_OF_PERICENTER":96.4979,"MEAN_ANOMALY":263.6169,"EPHEMERIS_TYPE":0,"CLASSIFICATION_TYPE":"U","NORAD_CAT_ID":52089,"ELEMENT_SET_NO":999,"REV_AT_EPOCH":18745,"BSTAR":0.00015511,"MEAN_MOTION_DOT":2.182e-5,"MEAN_MOTION_DDOT":0},{"OBJECT_NAME":"STARLINK-3712","OBJECT_ID":"2022-029C","EPOCH":"2025-08-01T10:22:40.078848","MEAN_MOTION":15.08838745,"ECCENTRICITY":0.0001421,"INCLINATION":53.2197,"RA_OF_ASC_NODE":357.8958,"ARG_OF_PERICENTER":105.0962,"MEAN_ANOMALY":255.0188,"EPHEMERIS_TYPE":0,"CLASSIFICATION_TYPE":"U","NORAD_CAT_ID":52090,"ELEMENT_SET_NO":999,"REV_AT_EPOCH":18740,"BSTAR":-1.4661e-5,"MEAN_MOTION_DOT":-5.21e-6,"MEAN_MOTION_DDOT":0},{"OBJECT_NAME":"STARLINK-3716","OBJECT_ID":"2022-029E","EPOCH":"2025-08-01T16:49:30.786528","MEAN_MOTION":15.08839536,"ECCENTRICITY":0.0001183,"INCLINATION":53.22,"RA_OF_ASC_NODE":356.6891,"ARG_OF_PERICENTER":94.5274,"MEAN_ANOMALY":265.5853,"EPHEMERIS_TYPE":0,"CLASSIFICATION_TYPE":"U","NORAD_CAT_ID":52092,"ELEMENT_SET_NO":999,"REV_AT_EPOCH":18744,"BSTAR":5.5727e-5,"MEAN_MOTION_DOT":5.99e-6,"MEAN_MOTION_DDOT":0},{"OBJECT_NAME":"STARLINK-3673","OBJECT_ID":"2022-029F","EPOCH":"2025-08-01T19:45:45.590112","MEAN_MOTION":15.08837614,"ECCENTRICITY":0.0001233,"INCLINATION":53.2186,"RA_OF_ASC_NODE":356.1482,"ARG_OF_PERICENTER":92.8414,"MEAN_ANOMALY":267.2719,"EPHEMERIS_TYPE":0,"CLASSIFICATION_TYPE":"U","NORAD_CAT_ID":52093,"ELEMENT_SET_NO":999,"REV_AT_EPOCH":18746,"BSTAR":2.9478e-5,"MEAN_MOTION_DOT":1.81e-6,"MEAN_MOTION_DDOT":0},{"OBJECT_NAME":"STARLINK-3714","OBJECT_ID":"2022-029G","EPOCH":"2025-08-01T16:38:54.073824","MEAN_MOTION":15.08830818,"ECCENTRICITY":0.0001895,"INCLINATION":53.219,"RA_OF_ASC_NODE":356.7202,"ARG_OF_PERICENTER":101.0395,"MEAN_ANOMALY":259.081,"EPHEMERIS_TYPE":0,"CLASSIFICATION_TYPE":"U","NORAD_CAT_ID":52094,"ELEMENT_SET_NO":999,"REV_AT_EPOCH":18744,"BSTAR":-7.9701e-5,"MEAN_MOTION_DOT":-1.556e-5,"MEAN_MOTION_DDOT":0},{"OBJECT_NAME":"STARLINK-3701","OBJECT_ID":"2022-029H","EPOCH":"2025-07-31T16:32:14.247456","MEAN_MOTION":15.08873864,"ECCENTRICITY":0.0001338,"INCLINATION":53.2188,"RA_OF_ASC_NODE":1.2308,"ARG_OF_PERICENTER":90.414,"MEAN_ANOMALY":269.7005,"EPHEMERIS_TYPE":0,"CLASSIFICATION_TYPE":"U","NORAD_CAT_ID":52095,"ELEMENT_SET_NO":999,"REV_AT_EPOCH":18729,"BSTAR":0.00075443,"MEAN_MOTION_DOT":0.0001175,"MEAN_MOTION_DDOT":0},{"OBJECT_NAME":"STARLINK-3717","OBJECT_ID":"2022-029J","EPOCH":"2025-08-01T09:31:00.006240","MEAN_MOTION":15.08816569,"ECCENTRICITY":0.0001331,"INCLINATION":53.2198,"RA_OF_ASC_NODE":348.0537,"ARG_OF_PERICENTER":99.6935,"MEAN_ANOMALY":260.4208,"EPHEMERIS_TYPE":0,"CLASSIFICATION_TYPE":"U","NORAD_CAT_ID":52096,"ELEMENT_SET_NO":999,"REV_AT_EPOCH":18752,"BSTAR":0.00010985,"MEAN_MOTION_DOT":1.46e-5,"MEAN_MOTION_DDOT":0},{"OBJECT_NAME":"STARLINK-3665","OBJECT_ID":"2022-029L","EPOCH":"2025-07-31T16:37:31.720800","MEAN_MOTION":15.08835498,"ECCENTRICITY":0.0001176,"INCLINATION":53.2185,"RA_OF_ASC_NODE":1.2138,"ARG_OF_PERICENTER":87.7034,"MEAN_ANOMALY":272.4093,"EPHEMERIS_TYPE":0,"CLASSIFICATION_TYPE":"U","NORAD_CAT_ID":52098,"ELEMENT_SET_NO":999,"REV_AT_EPOCH":18729,"BSTAR":2.4033e-5,"MEAN_MOTION_DOT":9.5e-7,"MEAN_MOTION_DDOT":0},{"OBJECT_NAME":"STARLINK-3702","OBJECT_ID":"2022-029N","EPOCH":"2025-07-31T16:26:57.498144","MEAN_MOTION":15.08827424,"ECCENTRICITY":0.0001054,"INCLINATION":53.2178,"RA_OF_ASC_NODE":1.2475,"ARG_OF_PERICENTER":88.7757,"MEAN_ANOMALY":271.3356,"EPHEMERIS_TYPE":0,"CLASSIFICATION_TYPE":"U","NORAD_CAT_ID":52100,"ELEMENT_SET_NO":999,"REV_AT_EPOCH":18729,"BSTAR":-5.1763e-5,"MEAN_MOTION_DOT":-1.111e-5,"MEAN_MOTION_DDOT":0},{"OBJECT_NAME":"STARLINK-3703","OBJECT_ID":"2022-029P","EPOCH":"2025-08-01T19:44:25.226880","MEAN_MOTION":15.08836566,"ECCENTRICITY":0.000127,"INCLINATION":53.2188,"RA_OF_ASC_NODE":356.3349,"ARG_OF_PERICENTER":88.7945,"MEAN_ANOMALY":271.3192,"EPHEMERIS_TYPE":0,"CLASSIFICATION_TYPE":"U","NORAD_CAT_ID":52101,"ELEMENT_SET_NO":999,"REV_AT_EPOCH":18745,"BSTAR":9.9141e-6,"MEAN_MOTION_DOT":-1.3e-6,"MEAN_MOTION_DDOT":0},{"OBJECT_NAME":"STARLINK-3709","OBJECT_ID":"2022-029Q","EPOCH":"2025-08-01T17:55:48.478368","MEAN_MOTION":15.08835599,"ECCENTRICITY":0.0001139,"INCLINATION":53.2189,"RA_OF_ASC_NODE":346.4816,"ARG_OF_PERICENTER":92.692,"MEAN_ANOMALY":267.4202,"EPHEMERIS_TYPE":0,"CLASSIFICATION_TYPE":"U","NORAD_CAT_ID":52102,"ELEMENT_SET_NO":999,"REV_AT_EPOCH":18758,"BSTAR":3.4793e-5,"MEAN_MOTION_DOT":2.66e-6,"MEAN_MOTION_DDOT":0},{"OBJECT_NAME":"STARLINK-3705","OBJECT_ID":"2022-029R","EPOCH":"2025-08-01T12:31:10.456320","MEAN_MOTION":15.0883686,"ECCENTRICITY":0.0001354,"INCLINATION":53.2192,"RA_OF_ASC_NODE":347.4931,"ARG_OF_PERICENTER":93.8593,"MEAN_ANOMALY":266.2554,"EPHEMERIS_TYPE":0,"CLASSIFICATION_TYPE":"U","NORAD_CAT_ID":52103,"ELEMENT_SET_NO":999,"REV_AT_EPOCH":18754,"BSTAR":-5.6443e-6,"MEAN_MOTION_DOT":-3.78e-6,"MEAN_MOTION_DDOT":0},{"OBJECT_NAME":"STARLINK-3706","OBJECT_ID":"2022-029T","EPOCH":"2025-08-01T12:21:58.610880","MEAN_MOTION":15.08826683,"ECCENTRICITY":0.0001192,"INCLINATION":53.2192,"RA_OF_ASC_NODE":347.5218,"ARG_OF_PERICENTER":95.8466,"MEAN_ANOMALY":264.2662,"EPHEMERIS_TYPE":0,"CLASSIFICATION_TYPE":"U","NORAD_CAT_ID":52105,"ELEMENT_SET_NO":999,"REV_AT_EPOCH":18754,"BSTAR":-0.00012355,"MEAN_MOTION_DOT":-2.253e-5,"MEAN_MOTION_DDOT":0}]
