STARLINK-3653           
1 52000U 22025AW  25213.50140251  .00000004  00000+0  18324-4 0  9994
2 52000  53.2177 287.4994 0001203  91.6570 268.4560 15.08833014187685
STARLINK-3659           
1 52001U 22025AX  25213.57965010  .00000490  00000+0  48878-4 0  9996
2 52001  53.2178 287.2461 0001131  91.1521 268.9601 15.08836005187690
STARLINK-3668           
1 52002U 22025AY  25213.51245139  .00000914  00000+0  75478-4 0  9991
2 52002  53.2175 287.5764 0001208  92.4768 267.6362 15.08841291187681
STARLINK-3537           
1 52088U 22029A   25213.45832839  .00850729  44679-3  68731-3 0  9995
2 52088  53.1995 193.6137 0001763 239.4497 262.8224 16.13742863189704
STARLINK-3722           
1 52089U 22029B   25213.77463652  .00002182  00000+0  15511-3 0  9990
2 52089  53.2206 356.3593 0001364  96.4979 263.6169 15.08847239187451
STARLINK-3712           
1 52090U 22029C   25213.43240832 -.00000521  00000+0 -14661-4 0  9991
2 52090  53.2197 357.8958 0001421 105.0962 255.0188 15.08838745187409
STARLINK-3716           
1 52092U 22029E   25213.70105077  .00000599  00000+0  55727-4 0  9995
2 52092  53.2200 356.6891 0001183  94.5274 265.5853 15.08839536187440
STARLINK-3673           
1 52093U 22029F   25213.82344433  .00000181  00000+0  29478-4 0  9991
2 52093  53.2186 356.1482 0001233  92.8414 267.2719 15.08837614187465
STARLINK-3714           
1 52094U 22029G   25213.69368141 -.00001556  00000+0 -79701-4 0  9992
2 52094  53.2190 356.7202 0001895 101.0395 259.0810 15.08830818187440
STARLINK-3701           
1 52095U 22029H   25212.68905379  .00011750  00000+0  75443-3 0  9994
2 52095  53.2188   1.2308 0001338  90.4140 269.7005 15.08873864187293
STARLINK-3717           
1 52096U 22029J   25213.39652785  .00001460  00000+0  10985-3 0  9991
2 52096  53.2198 348.0537 0001331  99.6935 260.4208 15.08816569187525
STARLINK-3665           
1 52098U 22029L   25212.69272825  .00000095  00000+0  24033-4 0  9991
2 52098  53.2185   1.2138 0001176  87.7034 272.4093 15.08835498187294
STARLINK-3702           
1 52100U 22029N   25212.68538771 -.00001111  00000+0 -51763-4 0  9991
2 52100  53.2178   1.2475 0001054  88.7757 271.3356 15.08827424187292
STARLINK-3703           
1 52101U 22029P   25213.82251420 -.00000130  00000+0  99141-5 0  9994
2 52101  53.2188 356.3349 0001270  88.7945 271.3192 15.08836566187450
STARLINK-3709           
1 52102U 22029Q   25213.74708887  .00000266  00000+0  34793-4 0  9990
2 52102  53.2189 346.4816 0001139  92.6920 267.4202 15.08835599187589
STARLINK-3705           
1 52103U 22029R   25213.52164880 -.00000378  00000+0 -56443-5 0  9999
2 52103  53.2192 347.4931 0001354  93.8593 266.2554 15.08836860187546
STARLINK-3706           
1 52105U 22029T   25213.51526170 -.00002253  00000+0 -12355-3 0  9990
2 52105  53.2192 347.5218 0001192  95.8466 264.2662 15.08826683187548
